CZ-2C R/B               
1 54039U 22132E   25360.24705974  .00031846  00000+0  45984-3 0  9999
2 54039  97.2951 356.7116 0020834  10.9520 349.2184 15.55646926178937
GSLV R/B                
1 54149U 22138AN  25360.03166883  .00002514  00000+0  21939-3 0  9998
2 54149  87.3822 191.0219 0023978  62.0505 298.3150 14.96196376172915
XRISM                   
1 57800U 23137A   25360.24952518  .00006138  00000+0  35799-3 0  9991
2 57800  31.0031  38.3118 0007627  21.1229 338.9723 15.10476293126678
ACS3                    
1 59588U 24077B   25359.89465237  .00024704  00000+0  20948-1 0  9993
2 59588  97.2594 312.5617 0074235 305.7641  53.6633 13.86089098 83969
SZ-21 MODULE            
1 66515U 25246C   25359.19228706  .00029146  00000+0  31272-3 0  9990
2 66515  41.4767 300.0489 0004589 327.9877  32.0683 15.63137537  6398
